*******************************************************************************
 Revised: Dec 02, 2013            Adrastea / (Jupiter)                      515

 SATELLITE PHYSICAL PROPERTIES:
  Radius (km)             =  10 +- 10       Density (g cm^-3)   =              
  Mass (10^20 kg )        =                 Geometric Albedo    =   0.05-0.10
                                            V(1,0)              = +12.4 

 SATELLITE ORBITAL DATA:
  Semi-major axis, a (km) = 128.98 (10^3)   Orbital period      = 0.29826 d
  Eccentricity, e         =  ~ 0            Rotational period   = Synchronous 
  Inclination, i  (deg)   =  ~ 0 
*******************************************************************************
 
 
*******************************************************************************
Ephemeris / WWW_USER Fri Jun 19 18:20:39 2020 Pasadena, USA      / Horizons
*******************************************************************************
Target body name: Adrastea (515)                  {source: jup310}
Center body name: Solar System Barycenter (0)     {source: DE431mx}
Center-site name: BODY CENTER
*******************************************************************************
Start time      : A.D. 1969-Jun-28 00:00:00.0000 TDB
Stop  time      : A.D. 2071-May-04 00:00:00.0000 TDB
Step-size       : 7200 minutes
*******************************************************************************
Center geodetic : 0.00000000,0.00000000,0.0000000 {E-lon(deg),Lat(deg),Alt(km)}
Center cylindric: 0.00000000,0.00000000,0.0000000 {E-lon(deg),Dxy(km),Dz(km)}
Center radii    : (undefined)                                                  
Output units    : AU-D
Output type     : GEOMETRIC cartesian states
Output format   : 2 (position and velocity)
Reference frame : Ecliptic of J2000.0
*******************************************************************************
            JDTDB,            Calendar Date (TDB),        delta-T,                      X,                      Y,                      Z,                     VX,                     VY,                     VZ,
******************************************************************************************************************************************************************************************************************
$$SOE
2465240.500000000, A.D. 2037-Jul-01 00:00:00.0000,      69.184121, -6.966885603213319E-01,  5.106797096088469E+00, -5.691592196768899E-03, -5.715519812296741E-03, -1.872487597867599E-02, -4.493095002650681E-04,
2465245.500000000, A.D. 2037-Jul-06 00:00:00.0000,      69.183983, -7.337974711629878E-01,  5.104251568833308E+00, -4.787841976709723E-03, -2.539031963517032E-02, -4.132073144011984E-03, -2.144804560956104E-04,
2465250.500000000, A.D. 2037-Jul-11 00:00:00.0000,      69.183847, -7.705708988306493E-01,  5.099887295076042E+00, -3.934772670944300E-03, -1.250745306118673E-02,  1.668906217259497E-02,  7.212743024103851E-04,
2465255.500000000, A.D. 2037-Jul-16 00:00:00.0000,      69.183712, -8.088184377624631E-01,  5.094822211024896E+00, -3.118960643657918E-03,  9.430765757792855E-03,  5.611782754324083E-03,  6.491329032050844E-04,
2465260.500000000, A.D. 2037-Jul-21 00:00:00.0000,      69.183578, -8.475810413071224E-01,  5.090951841459935E+00, -2.258643086762921E-03,  3.835467941353619E-04, -1.722633059143764E-02, -2.960659020038932E-04,
2465265.500000000, A.D. 2037-Jul-26 00:00:00.0000,      69.183446, -8.848806437148874E-01,  5.087492392169462E+00, -1.353102491787931E-03, -2.311966767981594E-02, -1.023518895872932E-02, -3.849976363746093E-04,
2465270.500000000, A.D. 2037-Jul-31 00:00:00.0000,      69.183317, -9.213282168318451E-01,  5.082411908383058E+00, -4.840775836904485E-04, -1.813843891495042E-02,  1.372545748870479E-02,  5.481104610004891E-04,
2465275.500000000, A.D. 2037-Aug-05 00:00:00.0000,      69.183194, -9.590027875129059E-01,  5.076138215232697E+00,  3.333709831781523E-04,  6.239528890318233E-03,  1.080827588615374E-02,  7.999742091495154E-04,
2465280.500000000, A.D. 2037-Aug-10 00:00:00.0000,      69.183079, -9.976531179937389E-01,  5.070782110005154E+00,  1.178455984768039E-03,  5.530622882592755E-03, -1.376679010486001E-02, -9.165766168876073E-05,
2465285.500000000, A.D. 2037-Aug-15 00:00:00.0000,      69.182970, -1.035154303226381E+00,  5.066285011675054E+00,  2.080052653885435E-03, -1.895692517449606E-02, -1.521770498660155E-02, -5.023316008462150E-04,
2465290.500000000, A.D. 2037-Aug-20 00:00:00.0000,      69.182868, -1.071381025619936E+00,  5.060522920752675E+00,  2.963806973869205E-03, -2.249409596730416E-02,  8.995743760174072E-03,  3.140457171915269E-04,
2465295.500000000, A.D. 2037-Aug-25 00:00:00.0000,      69.182772, -1.108433466470880E+00,  5.053187594875361E+00,  3.787815389915758E-03,  1.406647006407849E-03,  1.457273027359368E-02,  8.662560706679325E-04,
2465300.500000000, A.D. 2037-Aug-30 00:00:00.0000,      69.182685, -1.146801277430122E+00,  5.046352704823017E+00,  4.619000793662333E-03,  9.115323997035931E-03, -8.771437922004971E-03,  1.475245133203480E-04,
2465305.500000000, A.D. 2037-Sep-04 00:00:00.0000,      69.182609, -1.184463973556102E+00,  5.040686139304813E+00,  5.510699441528606E-03, -1.341059076806542E-02, -1.851454460284987E-02, -5.261637296049237E-04,
2465310.500000000, A.D. 2037-Sep-09 00:00:00.0000,      69.182544, -1.220576266480951E+00,  5.034230959437680E+00,  6.405137424516619E-03, -2.502533576240083E-02,  3.043629946166004E-03,  7.891071162002329E-05,
2465315.500000000, A.D. 2037-Sep-14 00:00:00.0000,      69.182490, -1.257009621952231E+00,  5.025983035073499E+00,  7.238954602540081E-03, -4.497333335201503E-03,  1.643102115135841E-02,  8.588831217682884E-04,
2465320.500000000, A.D. 2037-Sep-19 00:00:00.0000,      69.182445, -1.294931733472418E+00,  5.017724528960191E+00,  8.058888066833509E-03,  1.071907998549001E-02, -2.883167900786594E-03,  3.884862672664136E-04,
2465325.500000000, A.D. 2037-Sep-24 00:00:00.0000,      69.182411, -1.332669061471767E+00,  5.010767512140130E+00,  8.936337534201885E-03, -7.143232349126227E-03, -1.973622115226301E-02, -4.773953679830612E-04,
2465330.500000000, A.D. 2037-Sep-29 00:00:00.0000,      69.182388, -1.368760338718468E+00,  5.003563212609017E+00,  9.837058925084002E-03, -2.543244089127873E-02, -3.452725052434854E-03, -1.614370533141309E-04,
2465335.500000000, A.D. 2037-Oct-04 00:00:00.0000,      69.182378, -1.404622771544056E+00,  4.994531760122522E+00,  1.068359231367063E-02, -1.073897744919191E-02,  1.614359648403301E-02,  7.574118669248803E-04,
2465340.500000000, A.D. 2037-Oct-09 00:00:00.0000,      69.182382, -1.441957844805932E+00,  4.984944415251352E+00,  1.149643484217343E-02,  1.014090339067318E-02,  3.165983526396574E-03,  6.019591446277293E-04,
2465345.500000000, A.D. 2037-Oct-14 00:00:00.0000,      69.182398, -1.479642055226500E+00,  4.976605849181166E+00,  1.235649806537793E-02, -8.886055860806705E-04, -1.877473416568319E-02, -3.404447840977593E-04,
2465350.500000000, A.D. 2037-Oct-19 00:00:00.0000,      69.182425, -1.515776685573269E+00,  4.968562346256811E+00,  1.325727544711871E-02, -2.366803600346806E-02, -9.722935741963689E-03, -3.459359081112982E-04,
2465355.500000000, A.D. 2037-Oct-24 00:00:00.0000,      69.182462, -1.551149600173409E+00,  4.958841962873040E+00,  1.411661115909623E-02, -1.656591592801152E-02,  1.370308984326281E-02,  5.978663974574985E-04,
2465360.500000000, A.D. 2037-Oct-29 00:00:00.0000,      69.182511, -1.587793301171616E+00,  4.948055283259461E+00,  1.492665835685736E-02,  7.469745101406038E-03,  8.636933699172343E-03,  7.668431681914931E-04,
2465365.500000000, A.D. 2037-Nov-03 00:00:00.0000,      69.182572, -1.625271744575566E+00,  4.938285694429235E+00,  1.576832393195623E-02,  4.591199403493105E-03, -1.577446721774134E-02, -1.510177133712710E-04,
2465370.500000000, A.D. 2037-Nov-08 00:00:00.0000,      69.182646, -1.661473388196793E+00,  4.929285583404670E+00,  1.666350490932241E-02, -1.991931472091487E-02, -1.504299985615665E-02, -4.836793342527153E-04,
2465375.500000000, A.D. 2037-Nov-13 00:00:00.0000,      69.182730, -1.696460915399455E+00,  4.918926219046511E+00,  1.753491031098509E-02, -2.127938194852362E-02,  9.391062369297636E-03,  3.729005346720221E-04,
2465380.500000000, A.D. 2037-Nov-18 00:00:00.0000,      69.182822, -1.732354773260915E+00,  4.907090142158628E+00,  1.834715317242439E-02,  3.034950983925804E-03,  1.282758694658125E-02,  8.548385141443246E-04,
2465385.500000000, A.D. 2037-Nov-23 00:00:00.0000,      69.182923, -1.769459715575578E+00,  4.895887247778362E+00,  1.917117488522909E-02,  8.649496134217545E-03, -1.110443603250450E-02,  8.427312803509324E-05,
2465390.500000000, A.D. 2037-Nov-28 00:00:00.0000,      69.183031, -1.805702227157361E+00,  4.885800499551294E+00,  2.005448584350869E-02, -1.464255919819294E-02, -1.880525862396991E-02, -5.282562264250178E-04,
2465395.500000000, A.D. 2037-Dec-03 00:00:00.0000,      69.183149, -1.840414626974248E+00,  4.874807752442424E+00,  2.093438465582776E-02, -2.428465538680213E-02,  3.701234146645456E-03,  1.384686830865354E-04,
2465400.500000000, A.D. 2037-Dec-08 00:00:00.0000,      69.183274, -1.875552047867258E+00,  4.862077528691744E+00,  2.175247585871243E-02, -2.636773579215775E-03,  1.521584836151433E-02,  8.666860410317537E-04,
2465405.500000000, A.D. 2037-Dec-13 00:00:00.0000,      69.183405, -1.912118053094275E+00,  4.849486183448001E+00,  2.256126312059219E-02,  1.081449733975725E-02, -5.367832630031980E-03,  3.244516409537701E-04,
2465410.500000000, A.D. 2037-Dec-18 00:00:00.0000,      69.183539, -1.948328753448387E+00,  4.838191738690051E+00,  2.342821306617519E-02, -8.464109703021560E-03, -2.056391290387713E-02, -5.027661286754221E-04,
2465415.500000000, A.D. 2037-Dec-23 00:00:00.0000,      69.183676, -1.982867811816059E+00,  4.826525286864110E+00,  2.431263235704042E-02, -2.522396642271263E-02, -2.718410983459638E-03, -1.080925270238875E-04,
